start=new Date('2023-03-07T00:00:00.000Z').valueOf();
sats=[{"RA_OF_ASC_NODE":"174.7527","REV_AT_EPOCH":"10994","COUNTRY_CODE":"US","ELEMENT_SET_NO":"999","OBJECT_NAME":"STARLINK-2367","NORAD_CAT_ID":"47907","APOAPSIS":"547.930","CENTER_NAME":"EARTH","FILE":"3852880","SEMIMAJOR_AXIS":"6925.264","GP_ID":"227598635","MEAN_ANOMALY":"277.7479","TLE_LINE2":"2 47907  53.0532 174.7527 0001157  82.3641 277.7479 15.06427542109940","PERIOD":"95.590","TIME_SYSTEM":"UTC","RCS_SIZE":"LARGE","BSTAR":"0.00065856000000","OBJECT_ID":"2021-021AZ","ECCENTRICITY":"0.00011570","REF_FRAME":"TEME","EPHEMERIS_TYPE":"0","INCLINATION":"53.0532","MEAN_MOTION_DOT":"0.00009549","OBJECT_TYPE":"PAYLOAD","ARG_OF_PERICENTER":"82.3641","DECAY_DATE":null,"SITE":"AFETR","TLE_LINE1":"1 47907U 21021AZ  23065.79420289  .00009549  00000-0  65856-3 0  9990","EPOCH":"2023-03-06T19:03:39.129696","MEAN_MOTION":"15.06427542","MEAN_ELEMENT_THEORY":"SGP4","LAUNCH_DATE":"2021-03-14","CLASSIFICATION_TYPE":"U","MEAN_MOTION_DDOT":"0.0000000000000","PERIAPSIS":"546.328"},{"OBJECT_NAME":"STARLINK-2368","ELEMENT_SET_NO":"999","COUNTRY_CODE":"US","REV_AT_EPOCH":"11040","RA_OF_ASC_NODE":"175.0097","OBJECT_ID":"2021-021BA","BSTAR":"0.00072804000000","TIME_SYSTEM":"UTC","RCS_SIZE":"LARGE","TLE_LINE2":"2 47908  53.0547 175.0097 0001496  96.8979 263.2181 15.06415458110409","PERIOD":"95.591","MEAN_ANOMALY":"263.2181","GP_ID":"227626109","FILE":"3853141","SEMIMAJOR_AXIS":"6925.301","NORAD_CAT_ID":"47908","CENTER_NAME":"EARTH","APOAPSIS":"548.202","MEAN_MOTION":"15.06415458","MEAN_ELEMENT_THEORY":"SGP4","EPOCH":"2023-03-06T17:38:44.231424","TLE_LINE1":"1 47908U 21021BA  23065.73523416  .00010584  00000-0  72804-3 0  9993","SITE":"AFETR","DECAY_DATE":null,"ARG_OF_PERICENTER":"96.8979","MEAN_MOTION_DOT":"0.00010584","INCLINATION":"53.0547","OBJECT_TYPE":"PAYLOAD","EPHEMERIS_TYPE":"0","REF_FRAME":"TEME","ECCENTRICITY":"0.00014960","PERIAPSIS":"546.130","MEAN_MOTION_DDOT":"0.0000000000000","LAUNCH_DATE":"2021-03-14","CLASSIFICATION_TYPE":"U"},{"RA_OF_ASC_NODE":"166.1373","REV_AT_EPOCH":"11067","COUNTRY_CODE":"US","ELEMENT_SET_NO":"999","OBJECT_NAME":"STARLINK-2369","NORAD_CAT_ID":"47909","CENTER_NAME":"EARTH","APOAPSIS":"548.275","FILE":"3853141","SEMIMAJOR_AXIS":"6925.300","GP_ID":"227625358","MEAN_ANOMALY":"265.5049","TLE_LINE2":"2 47909  53.0540 166.1373 0001603  94.6123 265.5049 15.06415727110674","PERIOD":"95.591","TIME_SYSTEM":"UTC","RCS_SIZE":"LARGE","BSTAR":"0.00068381000000","OBJECT_ID":"2021-021BB","ECCENTRICITY":"0.00016030","REF_FRAME":"TEME","EPHEMERIS_TYPE":"0","INCLINATION":"53.0540","MEAN_MOTION_DOT":"0.00009923","OBJECT_TYPE":"PAYLOAD","ARG_OF_PERICENTER":"94.6123","SITE":"AFETR","DECAY_DATE":null,"TLE_LINE1":"1 47909U 21021BB  23065.48551864  .00009923  00000-0  68381-3 0  9994","EPOCH":"2023-03-06T11:39:08.810496","MEAN_MOTION":"15.06415727","MEAN_ELEMENT_THEORY":"SGP4","LAUNCH_DATE":"2021-03-14","CLASSIFICATION_TYPE":"U","MEAN_MOTION_DDOT":"0.0000000000000","PERIAPSIS":"546.055"},{"ELEMENT_SET_NO":"999","OBJECT_NAME":"STARLINK-2370","RA_OF_ASC_NODE":"165.9785","COUNTRY_CODE":"US","REV_AT_EPOCH":"11053","RCS_SIZE":"LARGE","TIME_SYSTEM":"UTC","PERIOD":"95.592","TLE_LINE2":"2 47910  53.0553 165.9785 0001342  91.6558 268.4585 15.06407787110532","OBJECT_ID":"2021-021BC","BSTAR":"-0.00009002500000","SEMIMAJOR_AXIS":"6925.325","FILE":"3853141","APOAPSIS":"548.119","CENTER_NAME":"EARTH","NORAD_CAT_ID":"47910","MEAN_ANOMALY":"268.4585","GP_ID":"227625608","DECAY_DATE":null,"SITE":"AFETR","ARG_OF_PERICENTER":"91.6558","MEAN_MOTION":"15.06407787","MEAN_ELEMENT_THEORY":"SGP4","EPOCH":"2023-03-06T12:30:51.424128","TLE_LINE1":"1 47910U 21021BC  23065.52142852 -.00001622  00000-0 -90025-4 0  9995","ECCENTRICITY":"0.00013420","REF_FRAME":"TEME","OBJECT_TYPE":"PAYLOAD","INCLINATION":"53.0553","MEAN_MOTION_DOT":"-0.00001622","EPHEMERIS_TYPE":"0","PERIAPSIS":"546.260","MEAN_MOTION_DDOT":"0.0000000000000","LAUNCH_DATE":"2021-03-14","CLASSIFICATION_TYPE":"U"},{"MEAN_MOTION_DDOT":"0.0000000000000","CLASSIFICATION_TYPE":"U","LAUNCH_DATE":"2021-03-14","PERIAPSIS":"546.337","ECCENTRICITY":"0.00010900","REF_FRAME":"TEME","INCLINATION":"53.0521","MEAN_MOTION_DOT":"0.00019330","OBJECT_TYPE":"PAYLOAD","EPHEMERIS_TYPE":"0","SITE":"AFETR","DECAY_DATE":null,"ARG_OF_PERICENTER":"73.7072","MEAN_ELEMENT_THEORY":"SGP4","MEAN_MOTION":"15.06439649","EPOCH":"2023-03-06T19:16:18.436224","TLE_LINE1":"1 47911U 21021BD  23065.80299116  .00019330  00000-0  13116-2 0  9990","FILE":"3852884","SEMIMAJOR_AXIS":"6925.227","NORAD_CAT_ID":"47911","CENTER_NAME":"EARTH","APOAPSIS":"547.847","MEAN_ANOMALY":"286.4037","GP_ID":"227598527","TIME_SYSTEM":"UTC","RCS_SIZE":"LARGE","TLE_LINE2":"2 47911  53.0521 179.9540 0001090  73.7072 286.4037 15.06439649110190","PERIOD":"95.590","OBJECT_ID":"2021-021BD","BSTAR":"0.00131160000000","RA_OF_ASC_NODE":"179.9540","REV_AT_EPOCH":"11019","COUNTRY_CODE":"US","ELEMENT_SET_NO":"999","OBJECT_NAME":"STARLINK-2371"},{"CLASSIFICATION_TYPE":"U","LAUNCH_DATE":"2021-03-14","MEAN_MOTION_DDOT":"0.0000000000000","PERIAPSIS":"546.326","EPHEMERIS_TYPE":"0","OBJECT_TYPE":"PAYLOAD","MEAN_MOTION_DOT":"0.00016044","INCLINATION":"53.0535","ECCENTRICITY":"0.00011560","REF_FRAME":"TEME","TLE_LINE1":"1 47912U 21021BE  23065.64674904  .00016044  00000-0  10927-2 0  9991","MEAN_MOTION":"15.06428263","MEAN_ELEMENT_THEORY":"SGP4","EPOCH":"2023-03-06T15:31:19.117056","ARG_OF_PERICENTER":"93.5534","SITE":"AFETR","DECAY_DATE":null,"GP_ID":"227626609","MEAN_ANOMALY":"266.5587","APOAPSIS":"547.927","CENTER_NAME":"EARTH","NORAD_CAT_ID":"47912","SEMIMAJOR_AXIS":"6925.262","FILE":"3853141","BSTAR":"0.00109270000000","OBJECT_ID":"2021-021BE","PERIOD":"95.590","TLE_LINE2":"2 47912  53.0535 165.4025 0001156  93.5534 266.5587 15.06428263110380","RCS_SIZE":"LARGE","TIME_SYSTEM":"UTC","COUNTRY_CODE":"US","REV_AT_EPOCH":"11038","RA_OF_ASC_NODE":"165.4025","OBJECT_NAME":"STARLINK-2372","ELEMENT_SET_NO":"999"},{"NORAD_CAT_ID":"47913","APOAPSIS":"548.075","CENTER_NAME":"EARTH","FILE":"3853141","SEMIMAJOR_AXIS":"6925.202","GP_ID":"227624859","MEAN_ANOMALY":"267.7840","TLE_LINE2":"2 47913  53.0529 175.2570 0001455  92.3316 267.7840 15.06447738110423","PERIOD":"95.589","TIME_SYSTEM":"UTC","RCS_SIZE":"LARGE","BSTAR":"0.00158800000000","OBJECT_ID":"2021-021BF","RA_OF_ASC_NODE":"175.2570","REV_AT_EPOCH":"11042","COUNTRY_CODE":"US","ELEMENT_SET_NO":"999","OBJECT_NAME":"STARLINK-2374","CLASSIFICATION_TYPE":"U","LAUNCH_DATE":"2021-03-14","MEAN_MOTION_DDOT":"0.0000000000000","PERIAPSIS":"546.060","REF_FRAME":"TEME","ECCENTRICITY":"0.00014550","EPHEMERIS_TYPE":"0","MEAN_MOTION_DOT":"0.00023481","INCLINATION":"53.0529","OBJECT_TYPE":"PAYLOAD","ARG_OF_PERICENTER":"92.3316","SITE":"AFETR","DECAY_DATE":null,"TLE_LINE1":"1 47913U 21021BF  23065.78688786  .00023481  00000-0  15880-2 0  9996","MEAN_MOTION":"15.06447738","EPOCH":"2023-03-06T18:53:07.111104","MEAN_ELEMENT_THEORY":"SGP4"},{"OBJECT_NAME":"STARLINK-2375","ELEMENT_SET_NO":"999","COUNTRY_CODE":"US","REV_AT_EPOCH":"11040","RA_OF_ASC_NODE":"175.2979","BSTAR":"0.00116440000000","OBJECT_ID":"2021-021BG","PERIOD":"95.590","TLE_LINE2":"2 47914  53.0537 175.2979 0001135  66.5926 293.5182 15.06433560110403","RCS_SIZE":"LARGE","TIME_SYSTEM":"UTC","GP_ID":"227625109","MEAN_ANOMALY":"293.5182","APOAPSIS":"547.897","CENTER_NAME":"EARTH","NORAD_CAT_ID":"47914","SEMIMAJOR_AXIS":"6925.246","FILE":"3853141","TLE_LINE1":"1 47914U 21021BG  23065.67256998  .00017120  00000-0  11644-2 0  9998","MEAN_MOTION":"15.06433560","EPOCH":"2023-03-06T16:08:30.046272","MEAN_ELEMENT_THEORY":"SGP4","ARG_OF_PERICENTER":"66.5926","SITE":"AFETR","DECAY_DATE":null,"EPHEMERIS_TYPE":"0","OBJECT_TYPE":"PAYLOAD","INCLINATION":"53.0537","MEAN_MOTION_DOT":"0.00017120","ECCENTRICITY":"0.00011350","REF_FRAME":"TEME","PERIAPSIS":"546.325","CLASSIFICATION_TYPE":"U","LAUNCH_DATE":"2021-03-14","MEAN_MOTION_DDOT":"0.0000000000000"},{"MEAN_ANOMALY":"274.3831","GP_ID":"227626359","SEMIMAJOR_AXIS":"6925.311","FILE":"3853141","APOAPSIS":"548.296","CENTER_NAME":"EARTH","NORAD_CAT_ID":"47915","OBJECT_ID":"2021-021BH","BSTAR":"0.00023738000000","RCS_SIZE":"LARGE","TIME_SYSTEM":"UTC","PERIOD":"95.591","TLE_LINE2":"2 47915  53.0535 170.3029 0001618  85.7342 274.3831 15.06412327110489","REV_AT_EPOCH":"11048","COUNTRY_CODE":"US","RA_OF_ASC_NODE":"170.3029","OBJECT_NAME":"STARLINK-2376","ELEMENT_SET_NO":"999","MEAN_MOTION_DDOT":"0.0000000000000","CLASSIFICATION_TYPE":"U","LAUNCH_DATE":"2021-03-14","PERIAPSIS":"546.055","OBJECT_TYPE":"PAYLOAD","INCLINATION":"53.0535","MEAN_MOTION_DOT":"0.00003257","EPHEMERIS_TYPE":"0","REF_FRAME":"TEME","ECCENTRICITY":"0.00016180","MEAN_ELEMENT_THEORY":"SGP4","MEAN_MOTION":"15.06412327","EPOCH":"2023-03-06T16:06:30.384000","TLE_LINE1":"1 47915U 21021BH  23065.67118500  .00003257  00000-0  23738-3 0  9999","DECAY_DATE":null,"SITE":"AFETR","ARG_OF_PERICENTER":"85.7342"},{"GP_ID":"227626110","MEAN_ANOMALY":"293.5634","CENTER_NAME":"EARTH","APOAPSIS":"548.016","NORAD_CAT_ID":"47916","SEMIMAJOR_AXIS":"6925.212","FILE":"3853141","BSTAR":"0.00240420000000","OBJECT_ID":"2021-021BJ","PERIOD":"95.589","TLE_LINE2":"2 47916  53.0524 155.1244 0001355  66.5497 293.5634 15.06444415110672","RCS_SIZE":"LARGE","TIME_SYSTEM":"UTC","REV_AT_EPOCH":"11067","COUNTRY_CODE":"US","RA_OF_ASC_NODE":"155.1244","OBJECT_NAME":"STARLINK-2378","ELEMENT_SET_NO":"999","CLASSIFICATION_TYPE":"U","LAUNCH_DATE":"2021-03-14","MEAN_MOTION_DDOT":"0.0000000000000","PERIAPSIS":"546.139","EPHEMERIS_TYPE":"0","OBJECT_TYPE":"PAYLOAD","MEAN_MOTION_DOT":"0.00035754","INCLINATION":"53.0524","REF_FRAME":"TEME","ECCENTRICITY":"0.00013550","TLE_LINE1":"1 47916U 21021BJ  23065.71127586  .00035754  00000-0  24042-2 0  9994","MEAN_MOTION":"15.06444415","EPOCH":"2023-03-06T17:04:14.234304","MEAN_ELEMENT_THEORY":"SGP4","ARG_OF_PERICENTER":"66.5497","SITE":"AFETR","DECAY_DATE":null}];
